YAM-10                  
1 64580U 25135BE  26201.88225677  .00001045  00000+0  10889-3 0  9993
2 64580  97.7755 315.2726 0002096 217.1212 142.9862 14.91913075 58885
YAM-11                  
1 68991U 26100M   26201.28345477  .00000697  00000+0  76877-4 0  9993
2 68991  97.7798  97.9703 0009280 344.6318  15.4617 14.90608756 11625
YAM-16                  
1 68992U 26100N   26201.96400864  .00000769  00000+0  82321-4 0  9992
2 68992  97.7329  98.7538 0004504  49.1505 311.0104 14.91525486 11737
YAM-13                  
1 68993U 26100P   26201.97794519  .00000876  00000+0  95574-4 0  9990
2 68993  97.7858  98.7544 0009099 339.6040  20.4813 14.90421055 11731
YAM-15                  
1 68997U 26100T   26201.96352814  .00000739  00000+0  81048-4 0  9990
2 68997  97.7856  98.7662 0008958 354.5465   5.5654 14.90658249 11738
YAM-12                  
1 69003U 26100Z   26201.26710569  .00002599  00000+0  27197-3 0  9997
2 69003  97.7786  97.9672 0009718 331.4197  28.6487 14.90464032 11614
YAM-14                  
1 69008U 26100AE  26201.73035913  .00000962  00000+0  10458-3 0  9991
2 69008  97.7842  98.4445 0005689  21.6057 338.5400 14.90362272 11680
